NORAD_CAT_ID,OBJECT_NAME,OBJECT_TYPE,EPOCH,MEAN_MOTION,ECCENTRICITY,INCLINATION,RA_OF_ASC_NODE,ARG_OF_PERICENTER,MEAN_ANOMALY,BSTAR,MEAN_MOTION_DOT,MEAN_MOTION_DDOT,TLE_LINE0,TLE_LINE1,TLE_LINE2,SEMIMAJOR_AXIS,PERIOD,APOGEE,PERIGEE,DECAYED
52832.0,STARLINK-4083,PAYLOAD,2022-08-16 22:00:00,15.08871856,0.0001709,53.2132,113.5196,52.3089,128.6413,-0.0030932,-0.00049223,0.0,0 STARLINK-4083,1 52832U 22062C   22228.91667824 -.00049223  00000-0 -30932-2 0  9992,2 52832  53.2132 113.5196 0001709  52.3089 128.6413 15.08871856  1306,6917.783,95.436,540.83,538.466,0.0
52832.0,STARLINK-4083,PAYLOAD,2022-08-17 16:00:00,15.08804824,0.000169,53.2138,110.1509,58.2665,238.7635,0.001695,0.00026765,0.0,0 STARLINK-4083,1 52832U 22062C   22229.66667824  .00026765  00000-0  16950-2 0  9993,2 52832  53.2138 110.1509 0001690  58.2665 238.7635 15.08804824  1307,6917.988,95.44,541.0219999999998,538.684,0.0
52832.0,STARLINK-4083,PAYLOAD,2022-08-18 14:00:01,15.08828816,0.0001686,53.2141,106.0355,58.1936,180.6853,0.0032045999999999,0.00051068,0.0,0 STARLINK-4083,1 52832U 22062C   22230.58334491  .00051068  00000-0  32046-2 0  9995,2 52832  53.2141 106.0355 0001686  58.1936 180.6853 15.08828816  1303,6917.915,95.438,540.946,538.613,0.0
52832.0,STARLINK-4083,PAYLOAD,2022-08-18 22:00:00,15.08861837,0.000181,53.2142,104.5407,53.6464,196.8381,0.00014059,1.951e-05,0.0,0 STARLINK-4083,1 52832U 22062C   22230.91667824  .00001951  00000-0  14059-3 0  9992,2 52832  53.2142 104.5407 0001810  53.6464 196.8381 15.08861837  1305,6917.814,95.436,540.931,538.427,0.0
52832.0,STARLINK-4083,PAYLOAD,2022-08-19 14:00:01,15.0880713,0.0001506,53.2145,101.546,55.5793,218.1269,0.0019075,0.00030173,0.0,0 STARLINK-4083,1 52832U 22062C   22231.58334491  .00030173  00000-0  19075-2 0  9997,2 52832  53.2145 101.5460 0001506  55.5793 218.1269 15.08807130  1301,6917.981,95.44,540.888,538.804,0.0
52832.0,STARLINK-4083,PAYLOAD,2022-08-19 16:00:00,15.08812213,0.0001508,53.2147,101.1723,55.6095,310.981,0.00091008,0.00014215,0.0,0 STARLINK-4083,1 52832U 22062C   22231.66667824  .00014215  00000-0  91008-3 0  9991,2 52832  53.2147 101.1723 0001508  55.6095 310.9810 15.08812213 10311,6917.965,95.439,540.874,538.7869999999998,0.0
52832.0,STARLINK-4083,PAYLOAD,2022-08-19 22:00:00,15.08816943,0.0001657,53.2145,100.0514,49.807,235.4602,-0.00035741,-5.968e-05,0.0,0 STARLINK-4083,1 52832U 22062C   22231.91667824 -.00005968  00000-0 -35741-3 0  9998,2 52832  53.2145 100.0514 0001657  49.8070 235.4602 15.08816943  1301,6917.951,95.439,540.962,538.67,0.0
52832.0,STARLINK-4083,PAYLOAD,2022-08-20 14:00:01,15.08821003,0.0001537,53.216,97.0522,54.49100000000001,253.9217,0.0035728,0.00057004,0.0,0 STARLINK-4083,1 52832U 22062C   22232.58334491  .00057004  00000-0  35728-2 0  9993,2 52832  53.2160  97.0522 0001537  54.4910 253.9217 15.08821003  1304,6917.938,95.439,540.867,538.74,0.0
52832.0,STARLINK-4083,PAYLOAD,2022-08-20 22:00:00,15.08834319,0.0001661,53.2144,95.5625,51.512,268.482,-0.00016417,-2.899e-05,0.0,0 STARLINK-4083,1 52832U 22062C   22232.91667824 -.00002899  00000-0 -16417-3 0  9998,2 52832  53.2144  95.5625 0001661  51.5120 268.4820 15.08834319 10509,6917.898,95.438,540.9119999999998,538.614,0.0
52832.0,STARLINK-4083,PAYLOAD,2022-08-21 14:00:01,15.08831414,0.0001519,53.2143,92.5681,59.6943,283.4789,0.0021853,0.00034654,0.0,0 STARLINK-4083,1 52832U 22062C   22233.58334491  .00034654  00000-0  21853-2 0  9994,2 52832  53.2143  92.5681 0001519  59.6943 283.4789 15.08831414  1303,6917.906999999997,95.438,540.822,538.721,0.0
52832.0,STARLINK-4083,PAYLOAD,2022-08-21 22:00:00,15.08843512,0.0001696,53.2141,91.0735,53.5763,301.1957,-9.0306e-05,-1.725e-05,0.0,0 STARLINK-4083,1 52832U 22062C   22233.91667824 -.00001725  00000-0 -90306-4 0  9996,2 52832  53.2141  91.0735 0001696  53.5763 301.1957 15.08843512  1301,6917.87,95.437,540.908,538.561,0.0
52832.0,STARLINK-4083,PAYLOAD,2022-08-22 06:00:00,15.08902904,0.0001446,53.2162,89.5717,53.0871,313.2201,-0.001883,-0.00030182,0.0,0 STARLINK-4083,1 52832U 22062C   22234.25001157 -.00030182  00000-0 -18830-2 0  9994,2 52832  53.2162  89.5717 0001446  53.0871 313.2201 15.08902904 10705,6917.688,95.434,540.553,538.553,0.0
52832.0,STARLINK-4083,PAYLOAD,2022-08-22 12:00:00,15.08804578,0.0001313,53.2137,88.45299999999996,55.0199,229.984,0.004301,0.00068764,0.0,0 STARLINK-4083,1 52832U 22062C   22234.50001157  .00068764  00000-0  43010-2 0  9995,2 52832  53.2137  88.4530 0001313  55.0199 229.9840 15.08804578  1302,6917.989000000001,95.44,540.762,538.945,0.0
52832.0,STARLINK-4083,PAYLOAD,2022-08-22 22:00:00,15.08840837,0.0001501999999999,53.2138,86.5845,48.6049,340.8831,0.00015378,2.1600000000000007e-05,0.0,0 STARLINK-4083,1 52832U 22062C   22234.91667824  .00002160  00000-0  15378-3 0  9994,2 52832  53.2138  86.5845 0001502  48.6049 340.8831 15.08840837 10809,6917.878000000002,95.438,540.7819999999998,538.7040000000002,0.0
52832.0,STARLINK-4083,PAYLOAD,2022-08-23 14:00:01,15.08846789,0.0001395,53.2138,83.5897,55.8208,356.8681,0.0012916,0.00020331,0.0,0 STARLINK-4083,1 52832U 22062C   22235.58334491  .00020331  00000-0  12916-2 0  9993,2 52832  53.2138  83.5897 0001395  55.8208 356.8681 15.08846789  1307,6917.86,95.437,540.69,538.76,0.0
52832.0,STARLINK-4083,PAYLOAD,2022-08-23 22:00:01,15.08847819,0.00016,53.2138,82.0949,49.3878,14.978,0.00042016,6.407e-05,0.0,0 STARLINK-4083,1 52832U 22062C   22235.91668981  .00006407  00000-0  42016-3 0  9997,2 52832  53.2138  82.0949 0001600  49.3878  14.9780 15.08847819  1306,6917.856,95.437,540.828,538.615,0.0
52832.0,STARLINK-4083,PAYLOAD,2022-08-24 06:00:00,15.08876089,0.0001563,53.2138,80.5973,51.1069,24.8019,-0.0045982,-0.00072801,0.0,0 STARLINK-4083,1 52832U 22062C   22236.25001157 -.00072801  00000-0 -45982-2 0  9998,2 52832  53.2138  80.5973 0001563  51.1069  24.8019 15.08876089 11001,6917.77,95.435,540.716,538.554,0.0
52832.0,STARLINK-4083,PAYLOAD,2022-08-24 14:00:01,15.08833498,0.0001587,53.214,79.1001,58.4467,29.0667,0.00080677,0.00012573,0.0,0 STARLINK-4083,1 52832U 22062C   22236.58334491  .00012573  00000-0  80677-3 0  9993,2 52832  53.2140  79.1001 0001587  58.4467  29.0667 15.08833498  1303,6917.9,95.438,540.863,538.6669999999998,0.0
52832.0,STARLINK-4083,PAYLOAD,2022-08-24 22:00:00,15.088273499999998,0.0001754999999999,53.2141,77.6054,52.0019,47.1078,0.00096454,0.00015091,0.0,0 STARLINK-4083,1 52832U 22062C   22236.91667824  .00015091  00000-0  96454-3 0  9997,2 52832  53.2141  77.6054 0001755  52.0019  47.1078 15.08827350 11101,6917.919,95.438,540.998,538.57,0.0
52832.0,STARLINK-4083,PAYLOAD,2022-08-25 14:00:01,15.08858866,0.000167,53.2162,74.6058,56.2623,66.029,-0.0013584,-0.00021853,0.0,0 STARLINK-4083,1 52832U 22062C   22237.58334491 -.00021853  00000-0 -13584-2 0  9999,2 52832  53.2162  74.6058 0001670  56.2623  66.0290 15.08858866  1301,6917.823,95.436,540.8430000000002,538.5319999999998,0.0
52832.0,STARLINK-4083,PAYLOAD,2022-08-25 22:00:00,15.08834609,0.00018,53.2144,73.1158,52.4333,81.4685,0.0014564,0.00022963,0.0,0 STARLINK-4083,1 52832U 22062C   22237.91667824  .00022963  00000-0  14564-2 0  9995,2 52832  53.2144  73.1158 0001800  52.4333  81.4685 15.08834609  1305,6917.897,95.438,541.007,538.5169999999998,0.0
52832.0,STARLINK-4083,PAYLOAD,2022-08-26 06:00:00,15.08862003,0.0001696,53.2144,71.618,55.8793,89.6197,-0.0015665,-0.00025148,0.0,0 STARLINK-4083,1 52832U 22062C   22238.25001157 -.00025148  00000-0 -15665-2 0  9997,2 52832  53.2144  71.6180 0001696  55.8793  89.6197 15.08862003 11312,6917.813,95.436,540.851,538.505,0.0
52832.0,STARLINK-4083,PAYLOAD,2022-08-26 14:00:01,15.08863301,0.0001736,53.2147,70.1209,61.6004,95.5689,-0.0026326,-0.00041969,0.0,0 STARLINK-4083,1 52832U 22062C   22238.58335648 -.00041969  00000-0 -26326-2 0  9993,2 52832  53.2147  70.1209 0001736  61.6004  95.5689 15.08863301  1308,6917.809,95.436,540.875,538.4730000000002,0.0
52832.0,STARLINK-4083,PAYLOAD,2022-08-26 22:00:00,15.08814036,0.0001901,53.2145,68.6261,55.403,113.3139,0.0018730999999999,0.00029627,0.0,0 STARLINK-4083,1 52832U 22062C   22238.91667824  .00029627  00000-0  18731-2 0  9990,2 52832  53.2145  68.6261 0001901  55.4030 113.3139 15.08814036  1300,6917.96,95.439,541.14,538.51,0.0
52832.0,STARLINK-4083,PAYLOAD,2022-08-27 14:00:01,15.08829425,0.0001828,53.2147,65.6316,65.1927,126.6375,-0.00040301,-6.695e-05,0.0,0 STARLINK-4083,1 52832U 22062C   22239.58334491 -.00006695  00000-0 -40301-3 0  9996,2 52832  53.2147  65.6316 0001828  65.1927 126.6375 15.08829425  1308,6917.913000000001,95.438,541.0419999999998,538.513,0.0
52832.0,STARLINK-4083,PAYLOAD,2022-08-27 22:00:00,15.08804019,0.000194,53.2144,64.1366,58.1639,145.2513,0.0023055,0.00036559,0.0,0 STARLINK-4083,1 52832U 22062C   22239.91667824  .00036559  00000-0  23055-2 0  9998,2 52832  53.2144  64.1366 0001940  58.1639 145.2513 15.08804019  1304,6917.99,95.44,541.197,538.513,0.0
52832.0,STARLINK-4083,PAYLOAD,2022-08-28 14:00:01,15.08845237,0.0001811999999999,53.2144,61.1423,66.803,159.7605,-0.00068344,-0.0001115,0.0,0 STARLINK-4083,1 52832U 22062C   22240.58334491 -.00011150  00000-0 -68344-3 0  9997,2 52832  53.2144  61.1423 0001812  66.8030 159.7605 15.08845237  1303,6917.864000000001,95.437,540.9830000000002,538.476,0.0
52832.0,STARLINK-4083,PAYLOAD,2022-08-28 22:00:00,15.08814113,0.0001923,53.2142,59.6472,59.9722,178.1909,0.0025975,0.00041265,0.0,0 STARLINK-4083,1 52832U 22062C   22240.91667824  .00041265  00000-0  25975-2 0  9993,2 52832  53.2142  59.6472 0001923  59.9722 178.1909 15.08814113  1302,6917.96,95.439,541.155,538.494,0.0
52832.0,STARLINK-4083,PAYLOAD,2022-08-29 14:00:01,15.08855131,0.0001826,53.2142,56.6528,68.2373,193.0963,-0.0010814,-0.00017465,0.0,0 STARLINK-4083,1 52832U 22062C   22241.58334491 -.00017465  00000-0 -10814-2 0  9991,2 52832  53.2142  56.6528 0001826  68.2373 193.0963 15.08855131  1309,6917.834,95.437,540.962,538.436,0.0
